[{"OBJECT_NAME":"STARLINK-36136","OBJECT_ID":"2025-288J","EPOCH":"2026-03-09T22:05:54.793248","MEAN_MOTION":15.27584821,"ECCENTRICITY":0.00013373,"INCLINATION":43.0033,"RA_OF_ASC_NODE":22.0707,"ARG_OF_PERICENTER":242.9607,"MEAN_ANOMALY":117.1108,"EPHEMERIS_TYPE":0,"CLASSIFICATION_TYPE":"U","NORAD_CAT_ID":66967,"ELEMENT_SET_NO":999,"REV_AT_EPOCH":1532,"BSTAR":0.001275511,"MEAN_MOTION_DOT":0.00035009,"MEAN_MOTION_DDOT":0},{"OBJECT_NAME":"OBJECT F","OBJECT_ID":"2021-022F","EPOCH":"2026-03-09T23:37:37.165152","MEAN_MOTION":15.31317672,"ECCENTRICITY":0.00120882,"INCLINATION":97.3982,"RA_OF_ASC_NODE":329.8375,"ARG_OF_PERICENTER":85.9268,"MEAN_ANOMALY":274.3355,"EPHEMERIS_TYPE":0,"CLASSIFICATION_TYPE":"U","NORAD_CAT_ID":47937,"ELEMENT_SET_NO":999,"REV_AT_EPOCH":27452,"BSTAR":0.00038690553,"MEAN_MOTION_DOT":0.00011656,"MEAN_MOTION_DDOT":0}]
